[Satellite]
VERSION=1.1
NAME=ITAMSAT (IO-26)
NICKNAME=IO-26
TLE1=1 22826U 93061D   20157.88757879 -.00000009  00000-0  14270-4 0  9991
TLE2=2 22826  98.9172 159.9975 0009717  44.2755 315.9203 14.30421776392398
STATUS=0
